NORAD_CAT_ID,OBJECT_NAME,OBJECT_TYPE,EPOCH,MEAN_MOTION,ECCENTRICITY,INCLINATION,RA_OF_ASC_NODE,ARG_OF_PERICENTER,MEAN_ANOMALY,BSTAR,MEAN_MOTION_DOT,MEAN_MOTION_DDOT,TLE_LINE0,TLE_LINE1,TLE_LINE2,SEMIMAJOR_AXIS,PERIOD,APOGEE,PERIGEE,DECAYED
51999.0,STARLINK-3667,PAYLOAD,2023-10-10 12:46:21,15.08845833,0.0001416,53.218,14.7802,96.7144,263.4009,-1.2092e-05,-4.8e-06,0.0,0 STARLINK-3667,1 51999U 22025AV  23283.53219613 -.00000480  00000-0 -12092-4 0  9994,2 51999  53.2180  14.7802 0001416  96.7144 263.4009 15.08845833 87890,6917.863,95.437,540.707,538.748,0.0
51999.0,STARLINK-3667,PAYLOAD,2023-10-10 17:32:30,15.08855044,0.0001345,53.2185,13.8912,87.882,272.2326,0.00013623,1.882e-05,0.0,0 STARLINK-3667,1 51999U 22025AV  23283.73091354  .00001882  00000-0  13623-3 0  9991,2 51999  53.2185  13.8912 0001345  87.8820 272.2326 15.08855044 87929,6917.834,95.437,540.63,538.769,0.0
51999.0,STARLINK-3667,PAYLOAD,2023-10-11 11:01:46,15.08826538,0.0001641,53.2183,10.6217,83.1633,276.9545,-0.0001988,-3.449e-05,0.0,0 STARLINK-3667,1 51999U 22025AV  23284.45957073 -.00003449  00000-0 -19880-3 0  9994,2 51999  53.2183  10.6217 0001641  83.1633 276.9545 15.08826538 89540,6917.922,95.438,540.922,538.651,0.0
51999.0,STARLINK-3667,PAYLOAD,2023-10-11 12:37:09,15.08829664,0.0001549,53.2191,10.3231,75.6802,284.4362,6.3116e-05,7.16e-06,0.0,0 STARLINK-3667,1 51999U 22025AV  23284.52580824  .00000716  00000-0  63116-4 0  9992,2 51999  53.2191  10.3231 0001549  75.6802 284.4362 15.08829664 88041,6917.912,95.438,540.849,538.705,0.0
51999.0,STARLINK-3667,PAYLOAD,2023-10-12 10:52:34,15.08847023,0.0001354,53.2175,6.1612,76.3356,283.7786,0.00080257,0.0001251,0.0,0 STARLINK-3667,1 51999U 22025AV  23285.45317453  .00012510  00000-0  80257-3 0  9990,2 51999  53.2175   6.1612 0001354  76.3356 283.7786 15.08847023 89698,6917.859,95.437,540.661,538.787,0.0
51999.0,STARLINK-3667,PAYLOAD,2023-10-12 12:27:57,15.08854311,0.0001329,53.2174,5.863,74.9267,285.1872,0.00095415,0.00014936,0.0,0 STARLINK-3667,1 51999U 22025AV  23285.51941304  .00014936  00000-0  95415-3 0  9991,2 51999  53.2174   5.8630 0001329  74.9267 285.1872 15.08854311 88194,6917.837,95.437,540.621,538.782,0.0
51999.0,STARLINK-3667,PAYLOAD,2023-10-13 12:18:44,15.08850342,0.000142,53.2173,1.4029,97.613,262.5023,0.00052425,8.068e-05,0.0,0 STARLINK-3667,1 51999U 22025AV  23286.51301388  .00008068  00000-0  52425-3 0  9997,2 51999  53.2173   1.4029 0001420  97.6130 262.5023 15.08850342 89851,6917.849,95.437,540.696,538.731,0.0
51999.0,STARLINK-3667,PAYLOAD,2023-10-13 21:51:03,15.08858374,0.0001507,53.2182,359.6191,78.079,282.0371,0.00084264,0.00013155,0.0,0 STARLINK-3667,1 51999U 22025AV  23286.91045196  .00013155  00000-0  84264-3 0  9992,2 51999  53.2182 359.6191 0001507  78.0790 282.0371 15.08858374 88406,6917.824,95.436,540.732,538.647,0.0
51999.0,STARLINK-3667,PAYLOAD,2023-10-14 13:44:54,15.08868753,0.0001635,53.2165,356.645,86.5895,273.5284,0.0021403,0.00033966,0.0,0 STARLINK-3667,1 51999U 22025AV  23287.57284799  .00033966  00000-0  21403-2 0  9996,2 51999  53.2165 356.6450 0001635  86.5895 273.5284 15.08868753 88505,6917.793,95.436,540.789,538.526,0.0
51999.0,STARLINK-3667,PAYLOAD,2023-10-14 21:41:50,15.08838263,0.0001776,53.2164,355.1598,93.9567,266.1629,-9.7693e-06,-4.44e-06,0.0,0 STARLINK-3667,1 51999U 22025AV  23287.90405164 -.00000444  00000-0 -97693-5 0  9998,2 51999  53.2164 355.1598 0001776  93.9567 266.1629 15.08838263 88554,6917.886,95.438,540.979,538.522,0.0
51999.0,STARLINK-3667,PAYLOAD,2023-10-14 23:17:13,15.08833573,0.0001882,53.2163,354.8634,97.9272,262.1933,0.00024166,3.559e-05,0.0,0 STARLINK-3667,1 51999U 22025AV  23287.97029355  .00003559  00000-0  24166-3 0  9990,2 51999  53.2163 354.8634 0001882  97.9272 262.1933 15.08833573 90078,6917.9,95.438,541.067,538.463,0.0
51999.0,STARLINK-3667,PAYLOAD,2023-10-15 10:24:56,15.08820061,0.0001708,53.2163,352.7803,100.0764,260.0421,-3.2702e-05,-8.08e-06,0.0,0 STARLINK-3667,1 51999U 22025AV  23288.43398191 -.00000808  00000-0 -32702-4 0  9991,2 51999  53.2163 352.7803 0001708 100.0764 260.0421 15.08820061 90147,6917.941,95.439,540.988,538.625,0.0
51999.0,STARLINK-3667,PAYLOAD,2023-10-15 13:35:42,15.08823346,0.0001676,53.2159,352.1848,98.0937,262.0245,0.0002345,3.444e-05,0.0,0 STARLINK-3667,1 51999U 22025AV  23288.56646351  .00003444  00000-0  23450-3 0  9995,2 51999  53.2159 352.1848 0001676  98.0937 262.0245 15.08823346 88655,6917.931,95.439,540.956,538.637,0.0
51999.0,STARLINK-3667,PAYLOAD,2023-10-15 21:32:38,15.08830977,0.0001674,53.2157,350.6976,97.3989,262.7193,0.00094432,0.00014769,0.0,0 STARLINK-3667,1 51999U 22025AV  23288.89766773  .00014769  00000-0  94432-3 0  9992,2 51999  53.2157 350.6976 0001674  97.3989 262.7193 15.08830977 88708,6917.908,95.438,540.931,538.615,0.0
51999.0,STARLINK-3667,PAYLOAD,2023-10-15 23:08:01,15.08834983,0.0001685,53.2155,350.4003,98.278,261.8403,0.0011353,0.00017824,0.0,0 STARLINK-3667,1 51999U 22025AV  23288.96390814  .00017824  00000-0  11353-2 0  9994,2 51999  53.2155 350.4003 0001685  98.2780 261.8403 15.08834983 90221,6917.896,95.438,540.926,538.595,0.0
51999.0,STARLINK-3667,PAYLOAD,2023-10-16 10:15:43,15.08857668,0.0001695,53.2153,348.319,94.7382,265.3804,0.0016389,0.00025904,0.0,0 STARLINK-3667,1 51999U 22025AV  23289.42758666  .00025904  00000-0  16389-2 0  9991,2 51999  53.2153 348.3190 0001695  94.7382 265.3804 15.08857668 88789,6917.826,95.436,540.864,538.519,0.0
51999.0,STARLINK-3667,PAYLOAD,2023-10-17 10:06:29,15.08854052,0.0001523,53.2153,343.8579,95.7893,264.3273,0.00048791,7.489e-05,0.0,0 STARLINK-3667,1 51999U 22025AV  23290.42118042  .00007489  00000-0  48791-3 0  9992,2 51999  53.2153 343.8579 0001523  95.7893 264.3273 15.08854052 90447,6917.837,95.437,540.756,538.649,0.0
51999.0,STARLINK-3667,PAYLOAD,2023-10-17 13:17:16,15.08861976,0.0001482,53.2155,343.2632,92.1065,268.0097,0.00084981,0.00013271,0.0,0 STARLINK-3667,1 51999U 22025AV  23290.55365888  .00013271  00000-0  84981-3 0  9995,2 51999  53.2155 343.2632 0001482  92.1065 268.0097 15.08861976 88950,6917.813,95.436,540.703,538.653,0.0
51999.0,STARLINK-3667,PAYLOAD,2023-10-17 22:49:35,15.08851648,0.0001593,53.2156,341.4792,86.0008,274.1166,0.00067723,0.0001051,0.0,0 STARLINK-3667,1 51999U 22025AV  23290.95110170  .00010510  00000-0  67723-3 0  9999,2 51999  53.2156 341.4792 0001593  86.0008 274.1166 15.08851648 90526,6917.845,95.437,540.812,538.608,0.0
51999.0,STARLINK-3667,PAYLOAD,2023-10-18 09:57:17,15.08845014,0.0001547,53.2165,339.399,77.2433,282.8731,0.00038944,5.916e-05,0.0,0 STARLINK-3667,1 51999U 22025AV  23291.41478253  .00005916  00000-0  38944-3 0  9997,2 51999  53.2165 339.3990 0001547  77.2433 282.8731 15.08845014 90596,6917.865,95.437,540.8,538.66,0.0
51999.0,STARLINK-3667,PAYLOAD,2023-10-19 09:48:03,15.08864623,0.0001612,53.2159,334.9357,77.8834,282.2339,0.0011953,0.00018799,0.0,0 STARLINK-3667,1 51999U 22025AV  23292.40837918  .00018799  00000-0  11953-2 0  9997,2 51999  53.2159 334.9357 0001612  77.8834 282.2339 15.08864623 89235,6917.805,95.436,540.785,538.555,0.0
51999.0,STARLINK-3667,PAYLOAD,2023-10-20 08:03:27,15.08847821,0.0001863,53.2171,330.7731,122.9137,237.2034,0.00051332,7.893e-05,0.0,0 STARLINK-3667,1 51999U 22025AV  23293.33573983  .00007893  00000-0  51332-3 0  9998,2 51999  53.2171 330.7731 0001863 122.9137 237.2034 15.08847821 90881,6917.856,95.437,541.01,538.433,0.0
51999.0,STARLINK-3667,PAYLOAD,2023-10-20 12:49:37,15.08845129,0.0001727,53.2169,329.8819,119.348,240.7685,0.00069011,0.00010714,0.0,0 STARLINK-3667,1 51999U 22025AV  23293.53446119  .00010714  00000-0  69011-3 0  9999,2 51999  53.2169 329.8819 0001727 119.3480 240.7685 15.08845129 89400,6917.865,95.437,540.924,538.535,0.0
51999.0,STARLINK-3667,PAYLOAD,2023-10-21 09:29:38,15.08842428,0.0001704,53.2173,326.018,106.6974,253.4205,0.00058286,9.001e-05,0.0,0 STARLINK-3667,1 51999U 22025AV  23294.39558572  .00009001  00000-0  58286-3 0  9990,2 51999  53.2173 326.0180 0001704 106.6974 253.4205 15.08842428 91048,6917.873,95.437,540.917,538.559,0.0
51999.0,STARLINK-3667,PAYLOAD,2023-10-21 11:05:01,15.08843778,0.0001558,53.2172,325.7191,100.3453,259.7715,0.00086916,0.00013573,0.0,0 STARLINK-3667,1 51999U 22025AV  23294.46182664  .00013573  00000-0  86916-3 0  9993,2 51999  53.2172 325.7191 0001558 100.3453 259.7715 15.08843778 89541,6917.869,95.437,540.812,538.656,0.0
51999.0,STARLINK-3667,PAYLOAD,2023-10-21 19:01:57,15.08846115,0.0001435,53.217,324.232,90.2311,269.8845,0.00052146,8.022e-05,0.0,0 STARLINK-3667,1 51999U 22025AV  23294.79302572  .00008022  00000-0  52146-3 0  9992,2 51999  53.2170 324.2320 0001435  90.2311 269.8845 15.08846115 89590,6917.862,95.437,540.719,538.734,0.0
51999.0,STARLINK-3667,PAYLOAD,2023-10-22 10:55:48,15.08843375,0.0001814,53.2176,321.2601,93.9233,266.1966,0.00020772,3.02e-05,0.0,0 STARLINK-3667,1 51999U 22025AV  23295.45542662  .00003020  00000-0  20772-3 0  9995,2 51999  53.2176 321.2601 0001814  93.9233 266.1966 15.08843375 91209,6917.87,95.437,540.99,538.48,0.0
51999.0,STARLINK-3667,PAYLOAD,2023-10-23 09:11:13,15.08837589,0.000178,53.2175,317.0962,75.7553,284.3636,1.3187e-05,-7.8e-07,0.0,0 STARLINK-3667,1 51999U 22025AV  23296.38279318 -.00000078  00000-0  13187-4 0  9997,2 51999  53.2175 317.0962 0001780  75.7553 284.3636 15.08837589 91347,6917.888,95.438,540.984,538.521,0.0
51999.0,STARLINK-3667,PAYLOAD,2023-10-23 18:43:32,15.08839227,0.0001693,53.2172,315.3127,84.7229,275.3956,5.3852e-05,5.69e-06,0.0,0 STARLINK-3667,1 51999U 22025AV  23296.78023271  .00000569  00000-0  53852-4 0  9993,2 51999  53.2172 315.3127 0001693  84.7229 275.3956 15.08839227 89894,6917.883,95.438,540.919,538.577,0.0
51999.0,STARLINK-3667,PAYLOAD,2023-10-24 07:26:36,15.0884678,0.0001593,53.2161,312.9316,86.5797,273.5378,0.00023429,3.443e-05,0.0,0 STARLINK-3667,1 51999U 22025AV  23297.31014978  .00003443  00000-0  23429-3 0  9997,2 51999  53.2161 312.9316 0001593  86.5797 273.5378 15.08846780 89973,6917.86,95.437,540.827,538.623,0.0
